{"fetched_at":"2026-03-29T16:36:15Z","count":15609,"tles":[{"name":"STARLINK-30858","line1":"1 58358U 23177H   26087.73555906  .00001765  00000+0  73604-4 0  9994","line2":"2 58358  43.0004 242.7495 0001025 277.0261  83.0474 15.27596139131153","category":"Starlink"}]}